ONEWEB-0540             
1 54645U 22166D   26062.62538892  .00000032  00000+0  46771-4 0  9993
2 54645  87.9165 265.0556 0001479  87.1444 272.9860 13.21827141157580
ONEWEB-0542             
1 54646U 22166E   26062.62853919 -.00000053  00000+0 -16041-3 0  9995
2 54646  87.9173 265.0143 0001235  86.9035 273.2241 13.21828681157593
ONEWEB-0545             
1 54647U 22166F   26062.51830020  .00000050  00000+0  88823-4 0  9995
2 54647  87.9166 265.0571 0001143  79.3647 280.7616 13.21825722157541
ONEWEB-0580             
1 54648U 22166G   26062.56767190  .00000037  00000+0  58430-4 0  9994
2 54648  87.9165 265.0465 0001359  78.9473 281.1814 13.21825247157596
ONEWEB-0582             
1 54649U 22166H   26062.61045418  .00000043  00000+0  72274-4 0  9992
2 54649  87.9168 265.0310 0001188  81.0174 279.1094 13.21825263157575
ONEWEB-0583             
1 54650U 22166J   26062.62196591  .00000014  00000+0  34800-5 0  9996
2 54650  87.9166 265.0522 0001474  91.5428 268.5875 13.21826115157583
ONEWEB-0584             
1 54651U 22166K   26062.56602580  .00000076  00000+0  15349-3 0  9993
2 54651  87.9165 265.0507 0001378  77.5825 282.5463 13.21825608157567
ONEWEB-0585             
1 54652U 22166L   26062.51499314 -.00000205  00000+0 -52791-3 0  9996
2 54652  87.9165 265.0454 0001760  90.7979 269.3357 13.21825476157569
ONEWEB-0586             
1 54653U 22166M   26062.60387219  .00000040  00000+0  64738-4 0  9997
2 54653  87.9167 265.0531 0001387  89.7542 270.3751 13.21824258157575
ONEWEB-0587             
1 54654U 22166N   26062.61373323 -.00000013  00000+0 -62527-4 0  9996
2 54654  87.9177 265.0143 0001932  95.5854 264.5500 13.21827426157738
ONEWEB-0589             
1 54655U 22166P   26062.60056251  .00000045  00000+0  78008-4 0  9998
2 54655  87.9163 265.0430 0001106  58.1796 301.9445 13.21826058157594
ONEWEB-0590             
1 54656U 22166Q   26062.62511929  .00000043  00000+0  73682-4 0  9990
2 54656  87.9174 265.0175 0001868  77.2000 282.9343 13.21826886157581
ONEWEB-0591             
1 54657U 22166R   26062.56107204 -.00000021  00000+0 -82774-4 0  9991
2 54657  87.9166 265.0520 0001624  89.0136 271.1184 13.21823687157600
ONEWEB-0592             
1 54658U 22166S   26062.56437208  .00000032  00000+0  45944-4 0  9990
2 54658  87.9174 265.0215 0001574  86.6820 273.4494 13.21827182157487
ONEWEB-0593             
1 54659U 22166T   26062.51171697  .00000057  00000+0  10617-3 0  9998
2 54659  87.9167 265.0518 0001459  92.8277 267.3024 13.21826328157586
ONEWEB-0594             
1 54660U 22166U   26062.60714399  .00000016  00000+0  68475-5 0  9994
2 54660  87.9167 265.0508 0001660  93.9024 266.2299 13.21827786157618
ONEWEB-0595             
1 54661U 22166V   26062.50841722  .00000042  00000+0  71356-4 0  9995
2 54661  87.9170 265.0427 0001790  90.7036 269.4303 13.21827253157570
