[{"OBJECT_NAME":"ONEWEB-0540","OBJECT_ID":"2022-166D","EPOCH":"2026-03-03T15:00:33.602688","MEAN_MOTION":13.21827141,"ECCENTRICITY":0.00014795,"INCLINATION":87.9165,"RA_OF_ASC_NODE":265.0556,"ARG_OF_PERICENTER":87.1444,"MEAN_ANOMALY":272.986,"EPHEMERIS_TYPE":0,"CLASSIFICATION_TYPE":"U","NORAD_CAT_ID":54645,"ELEMENT_SET_NO":999,"REV_AT_EPOCH":15758,"BSTAR":4.6770838e-5,"MEAN_MOTION_DOT":3.2e-7,"MEAN_MOTION_DDOT":0},{"OBJECT_NAME":"ONEWEB-0542","OBJECT_ID":"2022-166E","EPOCH":"2026-03-03T15:05:05.786016","MEAN_MOTION":13.21828681,"ECCENTRICITY":0.00012355,"INCLINATION":87.9173,"RA_OF_ASC_NODE":265.0143,"ARG_OF_PERICENTER":86.9035,"MEAN_ANOMALY":273.2241,"EPHEMERIS_TYPE":0,"CLASSIFICATION_TYPE":"U","NORAD_CAT_ID":54646,"ELEMENT_SET_NO":999,"REV_AT_EPOCH":15759,"BSTAR":-0.00016041023,"MEAN_MOTION_DOT":-5.3e-7,"MEAN_MOTION_DDOT":0},{"OBJECT_NAME":"ONEWEB-0545","OBJECT_ID":"2022-166F","EPOCH":"2026-03-03T12:26:21.137280","MEAN_MOTION":13.21825722,"ECCENTRICITY":0.0001143,"INCLINATION":87.9166,"RA_OF_ASC_NODE":265.0571,"ARG_OF_PERICENTER":79.3647,"MEAN_ANOMALY":280.7616,"EPHEMERIS_TYPE":0,"CLASSIFICATION_TYPE":"U","NORAD_CAT_ID":54647,"ELEMENT_SET_NO":999,"REV_AT_EPOCH":15754,"BSTAR":8.8822878e-5,"MEAN_MOTION_DOT":5.0e-7,"MEAN_MOTION_DDOT":0},{"OBJECT_NAME":"ONEWEB-0580","OBJECT_ID":"2022-166G","EPOCH":"2026-03-03T13:37:26.852160","MEAN_MOTION":13.21825247,"ECCENTRICITY":0.00013593,"INCLINATION":87.9165,"RA_OF_ASC_NODE":265.0465,"ARG_OF_PERICENTER":78.9473,"MEAN_ANOMALY":281.1814,"EPHEMERIS_TYPE":0,"CLASSIFICATION_TYPE":"U","NORAD_CAT_ID":54648,"ELEMENT_SET_NO":999,"REV_AT_EPOCH":15759,"BSTAR":5.8429762e-5,"MEAN_MOTION_DOT":3.7e-7,"MEAN_MOTION_DDOT":0},{"OBJECT_NAME":"ONEWEB-0582","OBJECT_ID":"2022-166H","EPOCH":"2026-03-03T14:39:03.241152","MEAN_MOTION":13.21825263,"ECCENTRICITY":0.00011884,"INCLINATION":87.9168,"RA_OF_ASC_NODE":265.031,"ARG_OF_PERICENTER":81.0174,"MEAN_ANOMALY":279.1094,"EPHEMERIS_TYPE":0,"CLASSIFICATION_TYPE":"U","NORAD_CAT_ID":54649,"ELEMENT_SET_NO":999,"REV_AT_EPOCH":15757,"BSTAR":7.2274086e-5,"MEAN_MOTION_DOT":4.3e-7,"MEAN_MOTION_DDOT":0},{"OBJECT_NAME":"ONEWEB-0583","OBJECT_ID":"2022-166J","EPOCH":"2026-03-03T14:55:37.854624","MEAN_MOTION":13.21826115,"ECCENTRICITY":0.00014744,"INCLINATION":87.9166,"RA_OF_ASC_NODE":265.0522,"ARG_OF_PERICENTER":91.5428,"MEAN_ANOMALY":268.5875,"EPHEMERIS_TYPE":0,"CLASSIFICATION_TYPE":"U","NORAD_CAT_ID":54650,"ELEMENT_SET_NO":999,"REV_AT_EPOCH":15758,"BSTAR":3.479993e-6,"MEAN_MOTION_DOT":1.4e-7,"MEAN_MOTION_DDOT":0},{"OBJECT_NAME":"ONEWEB-0584","OBJECT_ID":"2022-166K","EPOCH":"2026-03-03T13:35:04.629120","MEAN_MOTION":13.21825608,"ECCENTRICITY":0.00013787,"INCLINATION":87.9165,"RA_OF_ASC_NODE":265.0507,"ARG_OF_PERICENTER":77.5825,"MEAN_ANOMALY":282.5463,"EPHEMERIS_TYPE":0,"CLASSIFICATION_TYPE":"U","NORAD_CAT_ID":54651,"ELEMENT_SET_NO":999,"REV_AT_EPOCH":15756,"BSTAR":0.00015348918,"MEAN_MOTION_DOT":7.6e-7,"MEAN_MOTION_DDOT":0},{"OBJECT_NAME":"ONEWEB-0585","OBJECT_ID":"2022-166L","EPOCH":"2026-03-03T12:21:35.407296","MEAN_MOTION":13.21825476,"ECCENTRICITY":0.00017606,"INCLINATION":87.9165,"RA_OF_ASC_NODE":265.0454,"ARG_OF_PERICENTER":90.7979,"MEAN_ANOMALY":269.3357,"EPHEMERIS_TYPE":0,"CLASSIFICATION_TYPE":"U","NORAD_CAT_ID":54652,"ELEMENT_SET_NO":999,"REV_AT_EPOCH":15756,"BSTAR":-0.00052791144,"MEAN_MOTION_DOT":-2.05e-6,"MEAN_MOTION_DDOT":0},{"OBJECT_NAME":"ONEWEB-0586","OBJECT_ID":"2022-166M","EPOCH":"2026-03-03T14:29:34.557216","MEAN_MOTION":13.21824258,"ECCENTRICITY":0.00013877,"INCLINATION":87.9167,"RA_OF_ASC_NODE":265.0531,"ARG_OF_PERICENTER":89.7542,"MEAN_ANOMALY":270.3751,"EPHEMERIS_TYPE":0,"CLASSIFICATION_TYPE":"U","NORAD_CAT_ID":54653,"ELEMENT_SET_NO":999,"REV_AT_EPOCH":15757,"BSTAR":6.4737977e-5,"MEAN_MOTION_DOT":4.0e-7,"MEAN_MOTION_DDOT":0},{"OBJECT_NAME":"ONEWEB-0587","OBJECT_ID":"2022-166N","EPOCH":"2026-03-03T14:43:46.551072","MEAN_MOTION":13.21827426,"ECCENTRICITY":0.00019323,"INCLINATION":87.9177,"RA_OF_ASC_NODE":265.0143,"ARG_OF_PERICENTER":95.5854,"MEAN_ANOMALY":264.55,"EPHEMERIS_TYPE":0,"CLASSIFICATION_TYPE":"U","NORAD_CAT_ID":54654,"ELEMENT_SET_NO":999,"REV_AT_EPOCH":15773,"BSTAR":-6.252662e-5,"MEAN_MOTION_DOT":-1.3e-7,"MEAN_MOTION_DDOT":0},{"OBJECT_NAME":"ONEWEB-0589","OBJECT_ID":"2022-166P","EPOCH":"2026-03-03T14:24:48.600864","MEAN_MOTION":13.21826058,"ECCENTRICITY":0.00011065,"INCLINATION":87.9163,"RA_OF_ASC_NODE":265.043,"ARG_OF_PERICENTER":58.1796,"MEAN_ANOMALY":301.9445,"EPHEMERIS_TYPE":0,"CLASSIFICATION_TYPE":"U","NORAD_CAT_ID":54655,"ELEMENT_SET_NO":999,"REV_AT_EPOCH":15759,"BSTAR":7.8007855e-5,"MEAN_MOTION_DOT":4.5e-7,"MEAN_MOTION_DDOT":0},{"OBJECT_NAME":"ONEWEB-0590","OBJECT_ID":"2022-166Q","EPOCH":"2026-03-03T15:00:10.306656","MEAN_MOTION":13.21826886,"ECCENTRICITY":0.00018687,"INCLINATION":87.9174,"RA_OF_ASC_NODE":265.0175,"ARG_OF_PERICENTER":77.2,"MEAN_ANOMALY":282.9343,"EPHEMERIS_TYPE":0,"CLASSIFICATION_TYPE":"U","NORAD_CAT_ID":54656,"ELEMENT_SET_NO":999,"REV_AT_EPOCH":15758,"BSTAR":7.3681685e-5,"MEAN_MOTION_DOT":4.3e-7,"MEAN_MOTION_DDOT":0},{"OBJECT_NAME":"ONEWEB-0591","OBJECT_ID":"2022-166R","EPOCH":"2026-03-03T13:27:56.624256","MEAN_MOTION":13.21823687,"ECCENTRICITY":0.00016249,"INCLINATION":87.9166,"RA_OF_ASC_NODE":265.052,"ARG_OF_PERICENTER":89.0136,"MEAN_ANOMALY":271.1184,"EPHEMERIS_TYPE":0,"CLASSIFICATION_TYPE":"U","NORAD_CAT_ID":54657,"ELEMENT_SET_NO":999,"REV_AT_EPOCH":15760,"BSTAR":-8.2773654e-5,"MEAN_MOTION_DOT":-2.1e-7,"MEAN_MOTION_DDOT":0},{"OBJECT_NAME":"ONEWEB-0592","OBJECT_ID":"2022-166S","EPOCH":"2026-03-03T13:32:41.747712","MEAN_MOTION":13.21827182,"ECCENTRICITY":0.00015744,"INCLINATION":87.9174,"RA_OF_ASC_NODE":265.0215,"ARG_OF_PERICENTER":86.682,"MEAN_ANOMALY":273.4494,"EPHEMERIS_TYPE":0,"CLASSIFICATION_TYPE":"U","NORAD_CAT_ID":54658,"ELEMENT_SET_NO":999,"REV_AT_EPOCH":15748,"BSTAR":4.5943653e-5,"MEAN_MOTION_DOT":3.2e-7,"MEAN_MOTION_DDOT":0},{"OBJECT_NAME":"ONEWEB-0593","OBJECT_ID":"2022-166T","EPOCH":"2026-03-03T12:16:52.346208","MEAN_MOTION":13.21826328,"ECCENTRICITY":0.00014593,"INCLINATION":87.9167,"RA_OF_ASC_NODE":265.0518,"ARG_OF_PERICENTER":92.8277,"MEAN_ANOMALY":267.3024,"EPHEMERIS_TYPE":0,"CLASSIFICATION_TYPE":"U","NORAD_CAT_ID":54659,"ELEMENT_SET_NO":999,"REV_AT_EPOCH":15758,"BSTAR":0.00010617227,"MEAN_MOTION_DOT":5.7e-7,"MEAN_MOTION_DDOT":0},{"OBJECT_NAME":"ONEWEB-0594","OBJECT_ID":"2022-166U","EPOCH":"2026-03-03T14:34:17.240736","MEAN_MOTION":13.21827786,"ECCENTRICITY":0.000166,"INCLINATION":87.9167,"RA_OF_ASC_NODE":265.0508,"ARG_OF_PERICENTER":93.9024,"MEAN_ANOMALY":266.2299,"EPHEMERIS_TYPE":0,"CLASSIFICATION_TYPE":"U","NORAD_CAT_ID":54660,"ELEMENT_SET_NO":999,"REV_AT_EPOCH":15761,"BSTAR":6.847468e-6,"MEAN_MOTION_DOT":1.6e-7,"MEAN_MOTION_DDOT":0},{"OBJECT_NAME":"ONEWEB-0595","OBJECT_ID":"2022-166V","EPOCH":"2026-03-03T12:12:07.247808","MEAN_MOTION":13.21827253,"ECCENTRICITY":0.00017903,"INCLINATION":87.917,"RA_OF_ASC_NODE":265.0427,"ARG_OF_PERICENTER":90.7036,"MEAN_ANOMALY":269.4303,"EPHEMERIS_TYPE":0,"CLASSIFICATION_TYPE":"U","NORAD_CAT_ID":54661,"ELEMENT_SET_NO":999,"REV_AT_EPOCH":15757,"BSTAR":7.1355994e-5,"MEAN_MOTION_DOT":4.2e-7,"MEAN_MOTION_DDOT":0}]
